BRO-9                   
1 56185U 23054H   26095.56450994  .00148189  00000+0  11675-2 0  9995
2 56185  97.3032   9.5302 0000982 147.7842 212.3481 15.70993492167602
ION SCV-010             
1 56192U 23054Q   26095.63008435  .00007022  00000+0  27874-3 0  9999
2 56192  97.3865 346.0546 0014836  99.7710 260.5204 15.25555672165134
GHOST-1                 
1 56195U 23054T   26095.50576017  .00305119  38223-4  80944-3 0  9992
2 56195  97.2987  14.3952 0003229 144.4244 215.7248 15.94633130167900
TELEOS-2                
1 56310U 23057C   26093.17336608  .00000854  00000+0  14266-4 0  9995
2 56310   9.9901  30.3672 0001038 254.9175 105.0924 14.96393483161549
SNIPE 4                 
1 56744U 23072B   26095.61230872  .00027032  00000+0  68731-3 0  9992
2 56744  97.5324 299.4428 0005188 215.2956 144.7946 15.39577678158937
SNIPE 2                 
1 56745U 23072C   26095.58939008  .00031042  00000+0  69596-3 0  9992
2 56745  97.5325 301.9999 0003944 250.1084 109.9739 15.43357593159031
2023-072G               
1 56749U 23072G   26095.62577793  .00037042  00000+0  73990-3 0  9999
2 56749  97.4985 300.7805 0003356 232.8750 127.2193 15.46727811159239
OTTER PUP               
1 56933U 23084B   26095.38947337  .00341462  48306-4  86582-3 0  9996
2 56933  97.5728 254.2651 0003239 238.1404 121.9556 15.95478564157736
GEISAT PRECURSOR        
1 56934U 23084C   26095.62243652  .00010642  00000+0  33005-3 0  9992
2 56934  97.6111 234.2942 0005074 228.8969 131.1835 15.33588387156409
BLACKJACK ACES-3        
1 56950U 23084U   26095.60996337  .00007311  00000+0  36162-3 0  9999
2 56950  97.6092 230.3141 0001959 229.4266 130.6797 15.18120420156154
BLACKJACK ACES-2        
1 56955U 23084Z   26095.35203012  .00010486  00000+0  51675-3 0  9990
2 56955  97.6091 230.1427 0002124 161.9318 198.1992 15.18135828156127
BLACKJACK ACES-1        
1 56956U 23084AA  26095.34105472  .00010304  00000+0  50770-3 0  9995
2 56956  97.6081 229.9127 0002023 143.8772 216.2599 15.18148566105842
ION SCV-011             
1 56957U 23084AB  26095.52990750  .00007323  00000+0  27013-3 0  9998
2 56957  98.1374 276.1176 0006129 293.8938  66.1657 15.28120471154716
GHOST-3                 
1 56958U 23084AC  26095.37840762  .00026581  00000+0  55593-3 0  9990
2 56958  97.6116 240.2282 0006917 193.1052 167.0018 15.45431193156763
TOMORROW-R2             
1 56962U 23084AG  26095.38602787  .00147163  00000+0  84756-3 0  9992
2 56962  97.5913 251.1243 0004379 173.6881 186.4441 15.78270777157494
AFR-1                   
1 56964U 23084AJ  26095.61805334  .00007017  00000+0  26021-3 0  9997
2 56964  97.6156 230.6484 0009571 229.2734 130.7675 15.27898650156141
