[{"OBJECT_NAME":"BRO-9","OBJECT_ID":"2023-054H","EPOCH":"2026-04-05T13:32:53.658816","MEAN_MOTION":15.70993492,"ECCENTRICITY":9.825e-5,"INCLINATION":97.3032,"RA_OF_ASC_NODE":9.5302,"ARG_OF_PERICENTER":147.7842,"MEAN_ANOMALY":212.3481,"EPHEMERIS_TYPE":0,"CLASSIFICATION_TYPE":"U","NORAD_CAT_ID":56185,"ELEMENT_SET_NO":999,"REV_AT_EPOCH":16760,"BSTAR":0.0011674743,"MEAN_MOTION_DOT":0.00148189,"MEAN_MOTION_DDOT":0},{"OBJECT_NAME":"ION SCV-010","OBJECT_ID":"2023-054Q","EPOCH":"2026-04-05T15:07:19.287840","MEAN_MOTION":15.25555672,"ECCENTRICITY":0.00148368,"INCLINATION":97.3865,"RA_OF_ASC_NODE":346.0546,"ARG_OF_PERICENTER":99.771,"MEAN_ANOMALY":260.5204,"EPHEMERIS_TYPE":0,"CLASSIFICATION_TYPE":"U","NORAD_CAT_ID":56192,"ELEMENT_SET_NO":999,"REV_AT_EPOCH":16513,"BSTAR":0.00027874165,"MEAN_MOTION_DOT":7.022e-5,"MEAN_MOTION_DDOT":0},{"OBJECT_NAME":"GHOST-1","OBJECT_ID":"2023-054T","EPOCH":"2026-04-05T12:08:17.678688","MEAN_MOTION":15.9463313,"ECCENTRICITY":0.00032294,"INCLINATION":97.2987,"RA_OF_ASC_NODE":14.3952,"ARG_OF_PERICENTER":144.4244,"MEAN_ANOMALY":215.7248,"EPHEMERIS_TYPE":0,"CLASSIFICATION_TYPE":"U","NORAD_CAT_ID":56195,"ELEMENT_SET_NO":999,"REV_AT_EPOCH":16790,"BSTAR":0.00080943925,"MEAN_MOTION_DOT":0.00305119,"MEAN_MOTION_DDOT":3.8222622e-5},{"OBJECT_NAME":"TELEOS-2","OBJECT_ID":"2023-057C","EPOCH":"2026-04-03T04:09:38.829312","MEAN_MOTION":14.96393483,"ECCENTRICITY":0.00010386,"INCLINATION":9.9901,"RA_OF_ASC_NODE":30.3672,"ARG_OF_PERICENTER":254.9175,"MEAN_ANOMALY":105.0924,"EPHEMERIS_TYPE":0,"CLASSIFICATION_TYPE":"U","NORAD_CAT_ID":56310,"ELEMENT_SET_NO":999,"REV_AT_EPOCH":16154,"BSTAR":1.4266151e-5,"MEAN_MOTION_DOT":8.54e-6,"MEAN_MOTION_DDOT":0},{"OBJECT_NAME":"SNIPE 4","OBJECT_ID":"2023-072B","EPOCH":"2026-04-05T14:41:43.473408","MEAN_MOTION":15.39577678,"ECCENTRICITY":0.00051884,"INCLINATION":97.5324,"RA_OF_ASC_NODE":299.4428,"ARG_OF_PERICENTER":215.2956,"MEAN_ANOMALY":144.7946,"EPHEMERIS_TYPE":0,"CLASSIFICATION_TYPE":"U","NORAD_CAT_ID":56744,"ELEMENT_SET_NO":999,"REV_AT_EPOCH":15893,"BSTAR":0.00068731202,"MEAN_MOTION_DOT":0.00027032,"MEAN_MOTION_DDOT":0},{"OBJECT_NAME":"SNIPE 2","OBJECT_ID":"2023-072C","EPOCH":"2026-04-05T14:08:43.302912","MEAN_MOTION":15.43357593,"ECCENTRICITY":0.00039445,"INCLINATION":97.5325,"RA_OF_ASC_NODE":301.9999,"ARG_OF_PERICENTER":250.1084,"MEAN_ANOMALY":109.9739,"EPHEMERIS_TYPE":0,"CLASSIFICATION_TYPE":"U","NORAD_CAT_ID":56745,"ELEMENT_SET_NO":999,"REV_AT_EPOCH":15903,"BSTAR":0.00069595859,"MEAN_MOTION_DOT":0.00031042,"MEAN_MOTION_DDOT":0},{"OBJECT_NAME":"2023-072G","OBJECT_ID":"2023-072G","EPOCH":"2026-04-05T15:01:07.213152","MEAN_MOTION":15.46727811,"ECCENTRICITY":0.00033568,"INCLINATION":97.4985,"RA_OF_ASC_NODE":300.7805,"ARG_OF_PERICENTER":232.875,"MEAN_ANOMALY":127.2193,"EPHEMERIS_TYPE":0,"CLASSIFICATION_TYPE":"U","NORAD_CAT_ID":56749,"ELEMENT_SET_NO":999,"REV_AT_EPOCH":15923,"BSTAR":0.00073990112,"MEAN_MOTION_DOT":0.00037042,"MEAN_MOTION_DDOT":0},{"OBJECT_NAME":"OTTER PUP","OBJECT_ID":"2023-084B","EPOCH":"2026-04-05T09:20:50.499168","MEAN_MOTION":15.95478564,"ECCENTRICITY":0.00032392,"INCLINATION":97.5728,"RA_OF_ASC_NODE":254.2651,"ARG_OF_PERICENTER":238.1404,"MEAN_ANOMALY":121.9556,"EPHEMERIS_TYPE":0,"CLASSIFICATION_TYPE":"U","NORAD_CAT_ID":56933,"ELEMENT_SET_NO":999,"REV_AT_EPOCH":15773,"BSTAR":0.00086582034,"MEAN_MOTION_DOT":0.00341462,"MEAN_MOTION_DDOT":4.8305639e-5},{"OBJECT_NAME":"GEISAT PRECURSOR","OBJECT_ID":"2023-084C","EPOCH":"2026-04-05T14:56:18.515328","MEAN_MOTION":15.33588387,"ECCENTRICITY":0.00050744,"INCLINATION":97.6111,"RA_OF_ASC_NODE":234.2942,"ARG_OF_PERICENTER":228.8969,"MEAN_ANOMALY":131.1835,"EPHEMERIS_TYPE":0,"CLASSIFICATION_TYPE":"U","NORAD_CAT_ID":56934,"ELEMENT_SET_NO":999,"REV_AT_EPOCH":15640,"BSTAR":0.00033005288,"MEAN_MOTION_DOT":0.00010642,"MEAN_MOTION_DDOT":0},{"OBJECT_NAME":"BLACKJACK ACES-3","OBJECT_ID":"2023-084U","EPOCH":"2026-04-05T14:38:20.835168","MEAN_MOTION":15.1812042,"ECCENTRICITY":0.00019591,"INCLINATION":97.6092,"RA_OF_ASC_NODE":230.3141,"ARG_OF_PERICENTER":229.4266,"MEAN_ANOMALY":130.6797,"EPHEMERIS_TYPE":0,"CLASSIFICATION_TYPE":"U","NORAD_CAT_ID":56950,"ELEMENT_SET_NO":999,"REV_AT_EPOCH":15615,"BSTAR":0.00036162074,"MEAN_MOTION_DOT":7.311e-5,"MEAN_MOTION_DDOT":0},{"OBJECT_NAME":"BLACKJACK ACES-2","OBJECT_ID":"2023-084Z","EPOCH":"2026-04-05T08:26:55.402368","MEAN_MOTION":15.18135828,"ECCENTRICITY":0.0002124,"INCLINATION":97.6091,"RA_OF_ASC_NODE":230.1427,"ARG_OF_PERICENTER":161.9318,"MEAN_ANOMALY":198.1992,"EPHEMERIS_TYPE":0,"CLASSIFICATION_TYPE":"U","NORAD_CAT_ID":56955,"ELEMENT_SET_NO":999,"REV_AT_EPOCH":15612,"BSTAR":0.00051675,"MEAN_MOTION_DOT":0.00010486,"MEAN_MOTION_DDOT":0},{"OBJECT_NAME":"BLACKJACK ACES-1","OBJECT_ID":"2023-084AA","EPOCH":"2026-04-05T08:11:07.127808","MEAN_MOTION":15.18148566,"ECCENTRICITY":0.00020231,"INCLINATION":97.6081,"RA_OF_ASC_NODE":229.9127,"ARG_OF_PERICENTER":143.8772,"MEAN_ANOMALY":216.2599,"EPHEMERIS_TYPE":0,"CLASSIFICATION_TYPE":"U","NORAD_CAT_ID":56956,"ELEMENT_SET_NO":999,"REV_AT_EPOCH":10584,"BSTAR":0.00050769568,"MEAN_MOTION_DOT":0.00010304,"MEAN_MOTION_DDOT":0},{"OBJECT_NAME":"ION SCV-011","OBJECT_ID":"2023-084AB","EPOCH":"2026-04-05T12:43:04.008000","MEAN_MOTION":15.28120471,"ECCENTRICITY":0.0006129,"INCLINATION":98.1374,"RA_OF_ASC_NODE":276.1176,"ARG_OF_PERICENTER":293.8938,"MEAN_ANOMALY":66.1657,"EPHEMERIS_TYPE":0,"CLASSIFICATION_TYPE":"U","NORAD_CAT_ID":56957,"ELEMENT_SET_NO":999,"REV_AT_EPOCH":15471,"BSTAR":0.00027012923,"MEAN_MOTION_DOT":7.323e-5,"MEAN_MOTION_DDOT":0},{"OBJECT_NAME":"GHOST-3","OBJECT_ID":"2023-084AC","EPOCH":"2026-04-05T09:04:54.418368","MEAN_MOTION":15.45431193,"ECCENTRICITY":0.0006917,"INCLINATION":97.6116,"RA_OF_ASC_NODE":240.2282,"ARG_OF_PERICENTER":193.1052,"MEAN_ANOMALY":167.0018,"EPHEMERIS_TYPE":0,"CLASSIFICATION_TYPE":"U","NORAD_CAT_ID":56958,"ELEMENT_SET_NO":999,"REV_AT_EPOCH":15676,"BSTAR":0.00055593348,"MEAN_MOTION_DOT":0.00026581,"MEAN_MOTION_DDOT":0},{"OBJECT_NAME":"TOMORROW-R2","OBJECT_ID":"2023-084AG","EPOCH":"2026-04-05T09:15:52.807968","MEAN_MOTION":15.78270777,"ECCENTRICITY":0.00043797,"INCLINATION":97.5913,"RA_OF_ASC_NODE":251.1243,"ARG_OF_PERICENTER":173.6881,"MEAN_ANOMALY":186.4441,"EPHEMERIS_TYPE":0,"CLASSIFICATION_TYPE":"U","NORAD_CAT_ID":56962,"ELEMENT_SET_NO":999,"REV_AT_EPOCH":15749,"BSTAR":0.00084756067,"MEAN_MOTION_DOT":0.00147163,"MEAN_MOTION_DDOT":0},{"OBJECT_NAME":"AFR-1","OBJECT_ID":"2023-084AJ","EPOCH":"2026-04-05T14:49:59.808576","MEAN_MOTION":15.2789865,"ECCENTRICITY":0.00095717,"INCLINATION":97.6156,"RA_OF_ASC_NODE":230.6484,"ARG_OF_PERICENTER":229.2734,"MEAN_ANOMALY":130.7675,"EPHEMERIS_TYPE":0,"CLASSIFICATION_TYPE":"U","NORAD_CAT_ID":56964,"ELEMENT_SET_NO":999,"REV_AT_EPOCH":15614,"BSTAR":0.00026021337,"MEAN_MOTION_DOT":7.017e-5,"MEAN_MOTION_DDOT":0}]
